CCSDS_OMM_VERS = 2.0
CREATION_DATE  = 
ORIGINATOR     = 

OBJECT_NAME    = SL-3 R/B
OBJECT_ID      = 1988-032B
CENTER_NAME    = EARTH
REF_FRAME      = TEME
TIME_SYSTEM    = UTC
MEAN_ELEMENT_THEORY = SGP/SGP4

EPOCH          = 2026-03-14T14:30:09.506880
MEAN_MOTION    = 15.19973637
ECCENTRICITY   = .00248047
INCLINATION    = 97.5194
RA_OF_ASC_NODE = 56.8378
ARG_OF_PERICENTER = 213.3846
MEAN_ANOMALY   = 146.5826

EPHEMERIS_TYPE = 0
CLASSIFICATION_TYPE = U
NORAD_CAT_ID   = 19046
ELEMENT_SET_NO = 999
REV_AT_EPOCH   = 5285
BSTAR          = .30443741E-3
MEAN_MOTION_DOT = .6535E-4
MEAN_MOTION_DDOT = 0

CCSDS_OMM_VERS = 2.0
CREATION_DATE  = 
ORIGINATOR     = 

OBJECT_NAME    = SL-16 R/B
OBJECT_ID      = 1988-039B
CENTER_NAME    = EARTH
REF_FRAME      = TEME
TIME_SYSTEM    = UTC
MEAN_ELEMENT_THEORY = SGP/SGP4

EPOCH          = 2026-03-14T10:04:00.884352
MEAN_MOTION    = 14.19616514
ECCENTRICITY   = .0023033
INCLINATION    = 71.0140
RA_OF_ASC_NODE = 58.5454
ARG_OF_PERICENTER = 327.4396
MEAN_ANOMALY   = 32.5307

EPHEMERIS_TYPE = 0
CLASSIFICATION_TYPE = U
NORAD_CAT_ID   = 19120
ELEMENT_SET_NO = 999
REV_AT_EPOCH   = 95905
BSTAR          = .10740786E-3
MEAN_MOTION_DOT = .179E-5
MEAN_MOTION_DDOT = 0

CCSDS_OMM_VERS = 2.0
CREATION_DATE  = 
ORIGINATOR     = 

OBJECT_NAME    = COSMOS 1953
OBJECT_ID      = 1988-050A
CENTER_NAME    = EARTH
REF_FRAME      = TEME
TIME_SYSTEM    = UTC
MEAN_ELEMENT_THEORY = SGP/SGP4

EPOCH          = 2026-03-14T14:25:08.445216
MEAN_MOTION    = 15.28617844
ECCENTRICITY   = .00125892
INCLINATION    = 82.5102
RA_OF_ASC_NODE = 153.3084
ARG_OF_PERICENTER = 107.0522
MEAN_ANOMALY   = 253.2098

EPHEMERIS_TYPE = 0
CLASSIFICATION_TYPE = U
NORAD_CAT_ID   = 19210
ELEMENT_SET_NO = 999
REV_AT_EPOCH   = 3853
BSTAR          = .34927428E-3
MEAN_MOTION_DOT = .9776E-4
MEAN_MOTION_DDOT = 0

CCSDS_OMM_VERS = 2.0
CREATION_DATE  = 
ORIGINATOR     = 

OBJECT_NAME    = SL-8 R/B
OBJECT_ID      = 1988-053B
CENTER_NAME    = EARTH
REF_FRAME      = TEME
TIME_SYSTEM    = UTC
MEAN_ELEMENT_THEORY = SGP/SGP4

EPOCH          = 2026-03-14T12:47:15.468288
MEAN_MOTION    = 14.38919116
ECCENTRICITY   = .00214981
INCLINATION    = 74.0454
RA_OF_ASC_NODE = 103.5385
ARG_OF_PERICENTER = 282.1836
MEAN_ANOMALY   = 188.5763

EPHEMERIS_TYPE = 0
CLASSIFICATION_TYPE = U
NORAD_CAT_ID   = 19257
ELEMENT_SET_NO = 999
REV_AT_EPOCH   = 97729
BSTAR          = .10991072E-3
MEAN_MOTION_DOT = .313E-5
MEAN_MOTION_DDOT = 0

CCSDS_OMM_VERS = 2.0
CREATION_DATE  = 
ORIGINATOR     = 

OBJECT_NAME    = COSMOS 1975
OBJECT_ID      = 1988-093A
CENTER_NAME    = EARTH
REF_FRAME      = TEME
TIME_SYSTEM    = UTC
MEAN_ELEMENT_THEORY = SGP/SGP4

EPOCH          = 2026-03-14T13:41:33.425664
MEAN_MOTION    = 15.28144906
ECCENTRICITY   = .00125809
INCLINATION    = 82.5181
RA_OF_ASC_NODE = 112.7853
ARG_OF_PERICENTER = 147.0855
MEAN_ANOMALY   = 213.1171

EPHEMERIS_TYPE = 0
CLASSIFICATION_TYPE = U
NORAD_CAT_ID   = 19573
ELEMENT_SET_NO = 999
REV_AT_EPOCH   = 2015
BSTAR          = .31404691E-3
MEAN_MOTION_DOT = .8667E-4
MEAN_MOTION_DDOT = 0

CCSDS_OMM_VERS = 2.0
CREATION_DATE  = 
ORIGINATOR     = 

OBJECT_NAME    = SL-14 R/B
OBJECT_ID      = 1988-093B
CENTER_NAME    = EARTH
REF_FRAME      = TEME
TIME_SYSTEM    = UTC
MEAN_ELEMENT_THEORY = SGP/SGP4

EPOCH          = 2026-03-14T09:17:17.110176
MEAN_MOTION    = 14.85663070
ECCENTRICITY   = .00214246
INCLINATION    = 82.5313
RA_OF_ASC_NODE = 37.6341
ARG_OF_PERICENTER = 26.6669
MEAN_ANOMALY   = 88.5712

EPHEMERIS_TYPE = 0
CLASSIFICATION_TYPE = U
NORAD_CAT_ID   = 19574
ELEMENT_SET_NO = 999
REV_AT_EPOCH   = 171
BSTAR          = .76761204E-4
MEAN_MOTION_DOT = .692E-5
MEAN_MOTION_DDOT = 0

CCSDS_OMM_VERS = 2.0
CREATION_DATE  = 
ORIGINATOR     = 

OBJECT_NAME    = SL-16 R/B
OBJECT_ID      = 1988-102B
CENTER_NAME    = EARTH
REF_FRAME      = TEME
TIME_SYSTEM    = UTC
MEAN_ELEMENT_THEORY = SGP/SGP4

EPOCH          = 2026-03-14T13:36:13.972896
MEAN_MOTION    = 14.16155125
ECCENTRICITY   = .0014259
INCLINATION    = 70.9996
RA_OF_ASC_NODE = 141.2356
ARG_OF_PERICENTER = 353.8991
MEAN_ANOMALY   = 6.1956

EPHEMERIS_TYPE = 0
CLASSIFICATION_TYPE = U
NORAD_CAT_ID   = 19650
ELEMENT_SET_NO = 999
REV_AT_EPOCH   = 92758
BSTAR          = .12110571E-3
MEAN_MOTION_DOT = .192E-5
MEAN_MOTION_DDOT = 0

CCSDS_OMM_VERS = 2.0
CREATION_DATE  = 
ORIGINATOR     = 

OBJECT_NAME    = INTERCOSMOS 24
OBJECT_ID      = 1989-080A
CENTER_NAME    = EARTH
REF_FRAME      = TEME
TIME_SYSTEM    = UTC
MEAN_ELEMENT_THEORY = SGP/SGP4

EPOCH          = 2026-03-14T13:38:23.829504
MEAN_MOTION    = 12.59566177
ECCENTRICITY   = .11866801
INCLINATION    = 82.6019
RA_OF_ASC_NODE = 101.2265
ARG_OF_PERICENTER = 281.4854
MEAN_ANOMALY   = 65.5562

EPHEMERIS_TYPE = 0
CLASSIFICATION_TYPE = U
NORAD_CAT_ID   = 20261
ELEMENT_SET_NO = 999
REV_AT_EPOCH   = 66741
BSTAR          = .24026491E-3
MEAN_MOTION_DOT = .807E-5
MEAN_MOTION_DDOT = 0

CCSDS_OMM_VERS = 2.0
CREATION_DATE  = 
ORIGINATOR     = 

OBJECT_NAME    = SL-14 R/B
OBJECT_ID      = 1989-080C
CENTER_NAME    = EARTH
REF_FRAME      = TEME
TIME_SYSTEM    = UTC
MEAN_ELEMENT_THEORY = SGP/SGP4

EPOCH          = 2026-03-14T14:19:47.478720
MEAN_MOTION    = 12.50500254
ECCENTRICITY   = .12306965
INCLINATION    = 82.5972
RA_OF_ASC_NODE = 170.0372
ARG_OF_PERICENTER = 173.5371
MEAN_ANOMALY   = 188.3411

EPHEMERIS_TYPE = 0
CLASSIFICATION_TYPE = U
NORAD_CAT_ID   = 20262
ELEMENT_SET_NO = 999
REV_AT_EPOCH   = 66076
BSTAR          = .18412089E-3
MEAN_MOTION_DOT = .63E-5
MEAN_MOTION_DDOT = 0

CCSDS_OMM_VERS = 2.0
CREATION_DATE  = 
ORIGINATOR     = 

OBJECT_NAME    = DELTA 1 R/B
OBJECT_ID      = 1989-089B
CENTER_NAME    = EARTH
REF_FRAME      = TEME
TIME_SYSTEM    = UTC
MEAN_ELEMENT_THEORY = SGP/SGP4

EPOCH          = 2026-03-14T14:05:25.398528
MEAN_MOTION    = 14.50667585
ECCENTRICITY   = .00706497
INCLINATION    = 97.0702
RA_OF_ASC_NODE = 280.2468
ARG_OF_PERICENTER = 106.7878
MEAN_ANOMALY   = 254.1086

EPHEMERIS_TYPE = 0
CLASSIFICATION_TYPE = U
NORAD_CAT_ID   = 20323
ELEMENT_SET_NO = 999
REV_AT_EPOCH   = 89644
BSTAR          = .1110636E-3
MEAN_MOTION_DOT = .416E-5
MEAN_MOTION_DDOT = 0

CCSDS_OMM_VERS = 2.0
CREATION_DATE  = 
ORIGINATOR     = 

OBJECT_NAME    = ARIANE 40 R/B
OBJECT_ID      = 1990-005H
CENTER_NAME    = EARTH
REF_FRAME      = TEME
TIME_SYSTEM    = UTC
MEAN_ELEMENT_THEORY = SGP/SGP4

EPOCH          = 2026-03-14T14:36:06.756192
MEAN_MOTION    = 14.39874248
ECCENTRICITY   = .00101511
INCLINATION    = 98.3073
RA_OF_ASC_NODE = 134.1231
ARG_OF_PERICENTER = 183.4201
MEAN_ANOMALY   = 176.6920

EPHEMERIS_TYPE = 0
CLASSIFICATION_TYPE = U
NORAD_CAT_ID   = 20443
ELEMENT_SET_NO = 999
REV_AT_EPOCH   = 89351
BSTAR          = .11507702E-3
MEAN_MOTION_DOT = .319E-5
MEAN_MOTION_DDOT = 0

CCSDS_OMM_VERS = 2.0
CREATION_DATE  = 
ORIGINATOR     = 

OBJECT_NAME    = DELTA 2 R/B(1)
OBJECT_ID      = 1990-008B
CENTER_NAME    = EARTH
REF_FRAME      = TEME
TIME_SYSTEM    = UTC
MEAN_ELEMENT_THEORY = SGP/SGP4

EPOCH          = 2026-03-14T12:09:21.657888
MEAN_MOTION    = 15.56650810
ECCENTRICITY   = .00837701
INCLINATION    = 35.6034
RA_OF_ASC_NODE = 143.2251
ARG_OF_PERICENTER = 303.1324
MEAN_ANOMALY   = 56.1395

EPHEMERIS_TYPE = 0
CLASSIFICATION_TYPE = U
NORAD_CAT_ID   = 20453
ELEMENT_SET_NO = 999
REV_AT_EPOCH   = 92688
BSTAR          = .97543598E-3
MEAN_MOTION_DOT = .85344E-3
MEAN_MOTION_DDOT = 0

