SL-3 R/B                
1 19046U 88032B   26073.60427670  .00006535  00000+0  30444-3 0  9997
2 19046  97.5194  56.8378 0024804 213.3846 146.5826 15.19973637 52852
SL-16 R/B               
1 19120U 88039B   26073.41945468  .00000179  00000+0  10741-3 0  9992
2 19120  71.0140  58.5454 0023033 327.4396  32.5307 14.19616514959050
COSMOS 1953             
1 19210U 88050A   26073.60079219  .00009776  00000+0  34927-3 0  9992
2 19210  82.5102 153.3084 0012589 107.0522 253.2098 15.28617844 38533
SL-8 R/B                
1 19257U 88053B   26073.53281792  .00000313  00000+0  10991-3 0  9992
2 19257  74.0454 103.5385 0021498 282.1836 188.5763 14.38919116977294
COSMOS 1975             
1 19573U 88093A   26073.57052576  .00008667  00000+0  31405-3 0  9990
2 19573  82.5181 112.7853 0012580 147.0855 213.1171 15.28144906 20159
SL-14 R/B               
1 19574U 88093B   26073.38700359  .00000692  00000+0  76761-4 0  9994
2 19574  82.5313  37.6341 0021424  26.6669  88.5712 14.85663070  1712
SL-16 R/B               
1 19650U 88102B   26073.56682839  .00000192  00000+0  12111-3 0  9995
2 19650  70.9996 141.2356 0014259 353.8991   6.1956 14.16155125927583
INTERCOSMOS 24          
1 20261U 89080A   26073.56833136  .00000807  00000+0  24026-3 0  9990
2 20261  82.6019 101.2265 1186680 281.4854  65.5562 12.59566177667410
SL-14 R/B               
1 20262U 89080C   26073.59707730  .00000630  00000+0  18412-3 0  9990
2 20262  82.5972 170.0372 1230696 173.5371 188.3411 12.50500254660766
DELTA 1 R/B             
1 20323U 89089B   26073.58709952  .00000416  00000+0  11106-3 0  9999
2 20323  97.0702 280.2468 0070649 106.7878 254.1086 14.50667585896444
ARIANE 40 R/B           
1 20443U 90005H   26073.60841153  .00000319  00000+0  11508-3 0  9993
2 20443  98.3073 134.1231 0010151 183.4201 176.6920 14.39874248893514
DELTA 2 R/B(1)          
1 20453U 90008B   26073.50650067  .00085344  00000+0  97544-3 0  9993
2 20453  35.6034 143.2251 0083770 303.1324  56.1395 15.56650810926885
